ZHUHAI-1 02 (CAS-4B)    
1 42759U 17034B   23143.76494409  .00010031  00000+0  50771-3 0  9995
2 42759  43.0154 251.4151 0011815 301.3115  58.6575 15.17067225327920
ZHUHAI-1 01 (CAS-4A)    
1 42761U 17034D   23143.71529360  .00008669  00000+0  44021-3 0  9993
2 42761  43.0150 250.2240 0012619 302.5383  57.4245 15.17076570327911
MAX VALIER SAT          
1 42778U 17036P   23143.90322662  .00021125  00000+0  56955-3 0  9991
2 42778  97.1570 179.3371 0009103 173.7243 186.4118 15.37787532328998
RADFXSAT (FOX-1B)       
1 43017U 17073E   23143.94388016  .00005698  00000+0  40021-3 0  9992
2 43017  97.6329  29.2446 0235245 149.0023 212.5324 14.85759744297584
FOX-1D (AO-92)          
1 43137U 18004AC  23143.78534027  .00028442  00000+0  61425-3 0  9990
2 43137  97.3289 222.7427 0005745 211.1206 148.9703 15.44475006298544
DIWATA-2B               
1 43678U 18084H   23143.86665282  .00001799  00000+0  17725-3 0  9995
2 43678  98.0198 287.3524 0008448 237.4690 122.5713 14.93350953248637
ES'HAIL 2               
1 43700U 18090A   23143.95300427  .00000148  00000+0  00000+0 0  9996
2 43700   0.0152 341.7534 0001304 110.2932 158.1124  1.00272038 16447
FOX-1CLIFF (AO-95)      
1 43770U 18099N   23143.73900022  .00004528  00000+0  37184-3 0  9998
2 43770  97.5766 205.9382 0011166 206.9231 153.1414 14.99628161243948
ITASAT 1                
1 43786U 18099AE  23143.73618503  .00004607  00000+0  38108-3 0  9990
2 43786  97.5795 206.9669 0012660 194.7375 165.3481 14.99332568243985
JY1SAT (JO-97)          
1 43803U 18099AX  23143.91157588  .00005886  00000+0  47008-3 0  9990
2 43803  97.5686 207.1085 0012586 173.8109 186.3273 15.00569421244053
UWE-4                   
1 43880U 18111E   23143.70850193  .00005243  00000+0  40436-3 0  9994
2 43880  97.6336  49.2812 0015759 254.3717 105.5769 15.01930060240690
NEXUS (FO-99)           
1 43937U 19003F   23143.72333037  .00050396  00000+0  87944-3 0  9997
2 43937  97.0880 171.2739 0011707  17.0933 343.0711 15.50471426242258
JAISAT-1                
1 44419U 19038F   23143.89289371  .00022821  00000+0  80291-3 0  9990
2 44419  97.6737 124.8274 0016071  37.1431 323.0917 15.29225958214825
DUCHIFAT-3              
1 44854U 19089C   23143.61031167  .00007903  00000+0  53756-3 0  9997
2 44854  36.9613 238.1290 0008359 119.1188 241.0393 15.05908309189194
CAS-6 (TIANQIN 1)       
1 44881U 19093C   23143.93127055  .00001188  00000+0  15431-3 0  9996
2 44881  97.8616 222.7956 0015441 152.5894 207.6137 14.82484713185200
RS-44 & BREEZE-KM R/B   
1 44909U 19096E   23143.90762768  .00000022  00000+0  48061-4 0  9995
2 44909  82.5233   4.0824 0216425 243.6379 114.2358 12.79720724159058
BY70-2                  
1 45857U 20042B   23143.90044990  .00017211  00000+0  18020-2 0  9999
2 45857  97.9249 223.7320 0010220  94.7701 265.4683 14.89626779155928
SALSAT                  
1 46495U 20068K   23143.82902019  .00003623  00000+0  24226-3 0  9990
2 46495  97.7689  91.5813 0015004 196.1553 163.9198 15.07530592145401
RADFXSAT-2 (AO-109)     
1 47311U 21002C   23143.54553402  .00022151  00000+0  59474-3 0  9994
2 47311  60.6792 153.1845 0016177 161.2442 198.9251 15.37835397130490
UVSQ-SAT                
1 47438U 21006AB  23143.73792796  .00013490  00000+0  56344-3 0  9999
2 47438  97.3853 201.2075 0010993 160.6892 199.4764 15.23698763128926
DIY-1 (ARDUIQUBE)       
1 47963U 21022AH  23143.70771825  .00159715  00000+0  25295-2 0  9998
2 47963  97.4985  51.0938 0009459  67.4153 292.8099 15.52805567118780
XW-3 (CAS-9)            
1 50466U 21131B   23143.90124425  .00000691  00000+0  23876-3 0  9993
2 50466  98.5515 225.5219 0003930 195.8797 164.2267 14.38891276 73864
TEVEL-3                 
1 50988U 22002E   23143.89569509  .00016631  00000+0  68345-3 0  9995
2 50988  97.4337 211.0416 0006290 324.9876  35.0947 15.24237717 75061
TEVEL-8                 
1 50989U 22002F   23143.91340012  .00017003  00000+0  69997-3 0  9993
2 50989  97.4355 211.1157 0006285 323.6457  36.4353 15.24173559 75069
TEVEL-5                 
1 50998U 22002Q   23143.91873669  .00018016  00000+0  72266-3 0  9990
2 50998  97.4332 211.4202 0007388 316.8726  43.1932 15.25028856 75097
TEVEL-6                 
1 50999U 22002R   23143.91725790  .00017928  00000+0  71916-3 0  9994
2 50999  97.4332 211.4139 0007401 316.6914  43.3741 15.25028426 75093
TEVEL-1                 
1 51013U 22002AF  23143.90477795  .00016734  00000+0  68857-3 0  9994
2 51013  97.4334 210.9973 0006192 324.5493  35.5332 15.24194204 75062
TEVEL-7                 
1 51062U 22002CG  23143.91466358  .00017193  00000+0  70742-3 0  9998
2 51062  97.4351 211.0909 0006265 323.0314  37.0491 15.24189338 75068
TEVEL-4                 
1 51063U 22002CH  23143.85429547  .00017318  00000+0  71362-3 0  9999
2 51063  97.4350 211.0163 0006253 323.3509  36.7300 15.24138752 75054
TEVEL-2                 
1 51069U 22002CP  23143.89754588  .00017001  00000+0  69857-3 0  9990
2 51069  97.4334 211.0159 0006251 324.5452  35.5369 15.24238555 75060
GREENCUBE               
1 53106U 22080B   23143.46060132 -.00000003  00000+0  00000+0 0  9994
2 53106  70.1622 328.3166 0008351 190.4810 169.5677  6.42557191 20164
RS29S (SXC3-2110 CYCLO*)
1 53373U 22096D   23143.93935629  .00027379  00000+0  74191-3 0  9991
2 53373  97.4153  49.9800 0002184 109.7693 250.3787 15.37621359 43968
RS32S (SXC3-212 MONITO*)
1 53374U 22096E   23143.89571440  .00025725  00000+0  71492-3 0  9998
2 53374  97.4134  49.8513 0002174 123.3984 236.7468 15.36849185 43953
RS34S (SXC3-218 KUZBAS*)
1 53375U 22096F   23143.88759546  .00021556  00000+0  63413-3 0  9995
2 53375  97.4158  49.5944 0002125 122.7884 237.3564 15.35101946 43930
RS23S (SXC3-21 UTMN)    
1 53376U 22096G   23143.91823199  .00021229  00000+0  61470-3 0  9994
2 53376  97.4152  49.7003 0002103 113.6805 246.4659 15.35603293 43940
RS28S (SXC3-214 MIET-A*)
1 53377U 22096H   23143.89147654  .00017749  00000+0  52812-3 0  9999
2 53377  97.4163  49.5950 0002042 123.8753 236.2684 15.34783007 43934
RS26S (KAI-1)           
1 53378U 22096J   23143.90855574  .00016295  00000+0  50570-3 0  9993
2 53378  97.4177  49.4311 0002144 123.1311 237.0138 15.33465073 43927
RS19S (SXC3-219 ISOI)   
1 53381U 22096M   23143.91685012  .00017950  00000+0  52110-3 0  9997
2 53381  97.4153  49.8504 0005184 125.1778 234.9952 15.35546698 43957
RS21S (CUBESX-HSE-2)    
1 53383U 22096P   23143.89615943  .00021867  00000+0  62627-3 0  9998
2 53383  97.4157  49.8881 0005605 127.4527 232.7227 15.35927830 43958
RS30S (SXC3-217 SIREN)  
1 53384U 22096Q   23143.90514598  .00018075  00000+0  54099-3 0  9996
2 53384  97.4168  49.7338 0005622 125.4504 234.7264 15.34578920 43942
RS20S (GEOSCAN-EDELVEIS)
1 53385U 22096R   23143.92979109  .00027770  00000+0  71703-3 0  9995
2 53385  97.4147  50.4339 0006040 125.0439 235.1374 15.39092999 44027
RS33S (SXC3-215 VIZARD) 
1 53386U 22096S   23143.89865742  .00033734  00000+0  78211-3 0  9997
2 53386  97.4145  50.9297 0006769 124.8534 235.3351 15.42319241 44040
CAS-5A (FO-118)         
1 54684U 22167C   23143.88284080  .00010445  00000+0  58492-3 0  9990
2 54684  97.5596 281.6417 0014373  62.8506 297.4189 15.13524266 25006
